QIANFAN-65              
1 62795U 25016L   25281.47965709  .00000070  00000+0  90067-4 0  9990
2 62795  88.9727 109.8129 0014180 165.0180 195.1394 13.50971240 38439
QIANFAN-66              
1 62796U 25016M   25281.50855845  .00000063  00000+0  79164-4 0  9991
2 62796  88.9747 109.7672 0015427 161.1217 199.0510 13.50966411 38489
QIANFAN-67              
1 62797U 25016N   25281.51253810  .00000073  00000+0  94949-4 0  9996
2 62797  88.9737 109.7988 0015196 167.8474 192.3047 13.50968015 38450
QIANFAN-68              
1 62798U 25016P   25281.50434760  .00000061  00000+0  75697-4 0  9997
2 62798  88.9742 109.8425 0015292 166.1641 193.9932 13.50970356 38438
QIANFAN-69              
1 62799U 25016Q   25281.52082706  .00000063  00000+0  78984-4 0  9993
2 62799  88.9719 109.7242 0016015 167.4620 192.6933 13.50967908 38474
QIANFAN-70              
1 62800U 25016R   25281.53717066  .00000071  00000+0  91714-4 0  9996
2 62800  88.9741 109.8472 0015884 157.8751 202.3089 13.50972925 38431
QIANFAN-71              
1 62801U 25016S   25281.53314876  .00000068  00000+0  86118-4 0  9997
2 62801  88.9734 109.8311 0015831 170.8673 189.2769 13.50971653 38431
QIANFAN-72              
1 62802U 25016T   25274.29087208  .00000084  00000+0  11481-3 0  9997
2 62802  88.9730 110.6012 0018440 200.3911 159.6505 13.49486897 37447
